ORBCOMM FM103           
1 40091U 14040F   24233.48580785  .00002555  00000+0  60078-3 0  9992
2 40091  47.0069 356.7290 0002220 312.2013  47.8683 14.56923157537297
ORBCOMM FM114           
1 41179U 15081A   24233.17254859  .00002085  00000+0  49678-3 0  9993
2 41179  47.0010 267.4196 0001717   0.9832 359.1056 14.56949761460606
ORBCOMM FM119           
1 41180U 15081B   24232.25627645  .00002497  00000+0  58831-3 0  9998
2 41180  46.9991 180.9634 0000620  93.8952 266.2004 14.56892349461674
ORBCOMM FM105           
1 41181U 15081C   24233.22554238  .00001294  00000+0  41603-3 0  9997
2 41181  47.0011 152.6676 0001548  31.7540 328.3434 14.44560516457336
ORBCOMM FM110           
1 41182U 15081D   24233.14949744  .00002013  00000+0  48026-3 0  9995
2 41182  46.9998 266.9241 0002593 248.0028 112.0582 14.57011993460601
ORBCOMM FM118           
1 41183U 15081E   24233.47017478  .00001883  00000+0  45174-3 0  9997
2 41183  47.0022 265.7445 0002765 243.3288 116.7314 14.56999598460656
ORBCOMM FM112           
1 41184U 15081F   24233.26200475  .00002576  00000+0  60581-3 0  9995
2 41184  46.9976 175.4219 0001244  64.1555 295.9458 14.56881652461815
ORBCOMM FM113           
1 41185U 15081G   24233.23914682  .00002521  00000+0  59355-3 0  9992
2 41185  46.9995 175.8119 0000760  83.0864 277.0108 14.56891609461811
